CSS (TIANHE)            
1 48274U 21035A   26202.11164244  .00010192  00000+0  13514-3 0  9990
2 48274  41.4684 115.9697 0001843 304.6724  55.3940 15.58228865298469
